[{"OBJECT_NAME":"VRSS-1","OBJECT_ID":"2012-052A","EPOCH":"2026-03-09T23:06:08.647776","MEAN_MOTION":14.79803332,"ECCENTRICITY":0.00171344,"INCLINATION":97.6079,"RA_OF_ASC_NODE":50.4386,"ARG_OF_PERICENTER":196.7503,"MEAN_ANOMALY":163.3146,"EPHEMERIS_TYPE":0,"CLASSIFICATION_TYPE":"U","NORAD_CAT_ID":38782,"ELEMENT_SET_NO":999,"REV_AT_EPOCH":72493,"BSTAR":0.00021678471,"MEAN_MOTION_DOT":1.587e-5,"MEAN_MOTION_DDOT":0},{"OBJECT_NAME":"SL-16 R\/B","OBJECT_ID":"1999-039B","EPOCH":"2026-03-09T18:24:22.966272","MEAN_MOTION":14.8173167,"ECCENTRICITY":0.00135065,"INCLINATION":97.9966,"RA_OF_ASC_NODE":127.8636,"ARG_OF_PERICENTER":255.8246,"MEAN_ANOMALY":104.1466,"EPHEMERIS_TYPE":0,"CLASSIFICATION_TYPE":"U","NORAD_CAT_ID":25861,"ELEMENT_SET_NO":999,"REV_AT_EPOCH":43687,"BSTAR":9.8724714e-5,"MEAN_MOTION_DOT":7.25e-6,"MEAN_MOTION_DDOT":0}]
